{
"type": "FeatureCollection",
"name": "Limites_Lozere",
"features": [
{ "type": "Feature", "properties": { "ID": null }, "geometry": { "type": "Polygon", "coordinates": [ [ [ 3.632536, 44.877309, 0.0 ], [ 3.629861, 44.879824, 0.0 ], [ 3.614235, 44.874814, 0.0 ], [ 3.608278, 44.879336, 0.0 ], [ 3.60337, 44.879383, 0.0 ], [ 3.595027, 44.875799, 0.0 ], [ 3.597842, 44.858712, 0.0 ], [ 3.586876, 44.83605, 0.0 ], [ 3.589736, 44.829397, 0.0 ], [ 3.582458, 44.826115, 0.0 ], [ 3.568769, 44.834185, 0.0 ], [ 3.555335, 44.825671, 0.0 ], [ 3.541103, 44.828059, 0.0 ], [ 3.512201, 44.824816, 0.0 ], [ 3.507373, 44.824238, 0.0 ], [ 3.493094, 44.811516, 0.0 ], [ 3.490996, 44.808479, 0.0 ], [ 3.486962, 44.806479, 0.0 ], [ 3.478245, 44.809682, 0.0 ], [ 3.470015, 44.821938, 0.0 ], [ 3.456171, 44.831236, 0.0 ], [ 3.457587, 44.841323, 0.0 ], [ 3.445201, 44.851766, 0.0 ], [ 3.441797, 44.854229, 0.0 ], [ 3.436578, 44.876994, 0.0 ], [ 3.435709, 44.88025, 0.0 ], [ 3.421516, 44.894829, 0.0 ], [ 3.417816, 44.905037, 0.0 ], [ 3.419261, 44.908434, 0.0 ], [ 3.413033, 44.915673, 0.0 ], [ 3.410377, 44.917785, 0.0 ], [ 3.413762, 44.919965, 0.0 ], [ 3.412836, 44.944847, 0.0 ], [ 3.410819, 44.948006, 0.0 ], [ 3.403236, 44.956859, 0.0 ], [ 3.390907, 44.952776, 0.0 ], [ 3.377778, 44.956598, 0.0 ], [ 3.371672, 44.968934, 0.0 ], [ 3.372709, 44.975725, 0.0 ], [ 3.368992, 44.974177, 0.0 ], [ 3.361352, 44.971414, 0.0 ], [ 3.355232, 44.958265, 0.0 ], [ 3.354535, 44.954826, 0.0 ], [ 3.350371, 44.955035, 0.0 ], [ 3.337946, 44.955914, 0.0 ], [ 3.334083, 44.953852, 0.0 ], [ 3.318249, 44.946014, 0.0 ], [ 3.314339, 44.939788, 0.0 ], [ 3.300882, 44.939375, 0.0 ], [ 3.285385, 44.926259, 0.0 ], [ 3.267131, 44.929597, 0.0 ], [ 3.262552, 44.93524, 0.0 ], [ 3.265698, 44.941673, 0.0 ], [ 3.256172, 44.941608, 0.0 ], [ 3.252169, 44.940788, 0.0 ], [ 3.248412, 44.939514, 0.0 ], [ 3.250201, 44.936584, 0.0 ], [ 3.244563, 44.931719, 0.0 ], [ 3.249691, 44.916241, 0.0 ], [ 3.231163, 44.911121, 0.0 ], [ 3.226424, 44.909981, 0.0 ], [ 3.228286, 44.906944, 0.0 ], [ 3.227762, 44.897071, 0.0 ], [ 3.234928, 44.888584, 0.0 ], [ 3.225677, 44.882093, 0.0 ], [ 3.214823, 44.875001, 0.0 ], [ 3.195967, 44.872082, 0.0 ], [ 3.190268, 44.862529, 0.0 ], [ 3.181624, 44.864691, 0.0 ], [ 3.179889, 44.867816, 0.0 ], [ 3.164666, 44.875181, 0.0 ], [ 3.160274, 44.88447, 0.0 ], [ 3.157548, 44.886649, 0.0 ], [ 3.151481, 44.893934, 0.0 ], [ 3.147946, 44.896346, 0.0 ], [ 3.142856, 44.902292, 0.0 ], [ 3.128382, 44.903584, 0.0 ], [ 3.119518, 44.891547, 0.0 ], [ 3.103125, 44.884639, 0.0 ], [ 3.105263, 44.881826, 0.0 ], [ 3.104973, 44.866266, 0.0 ], [ 3.103186, 44.86322, 0.0 ], [ 3.094846, 44.855488, 0.0 ], [ 3.100178, 44.843929, 0.0 ], [ 3.097682, 44.841563, 0.0 ], [ 3.099155, 44.832918, 0.0 ], [ 3.093849, 44.833125, 0.0 ], [ 3.089332, 44.832788, 0.0 ], [ 3.072173, 44.836267, 0.0 ], [ 3.076983, 44.82428, 0.0 ], [ 3.072691, 44.822753, 0.0 ], [ 3.064039, 44.820237, 0.0 ], [ 3.04792, 44.80391, 0.0 ], [ 3.046245, 44.7973, 0.0 ], [ 3.048712, 44.794613, 0.0 ], [ 3.049964, 44.781886, 0.0 ], [ 3.049468, 44.778624, 0.0 ], [ 3.044049, 44.773532, 0.0 ], [ 3.048239, 44.764331, 0.0 ], [ 3.042242, 44.759387, 0.0 ], [ 3.031341, 44.749643, 0.0 ], [ 3.028739, 44.73319, 0.0 ], [ 3.027315, 44.730222, 0.0 ], [ 3.034896, 44.727053, 0.0 ], [ 3.039123, 44.715001, 0.0 ], [ 3.034286, 44.715544, 0.0 ], [ 3.016022, 44.712528, 0.0 ], [ 3.001628, 44.686839, 0.0 ], [ 2.999729, 44.676542, 0.0 ], [ 2.985626, 44.658242, 0.0 ], [ 2.981677, 44.644685, 0.0 ], [ 2.985451, 44.644213, 0.0 ], [ 2.98781, 44.641195, 0.0 ], [ 3.013276, 44.620851, 0.0 ], [ 3.018386, 44.611259, 0.0 ], [ 3.030709, 44.600749, 0.0 ], [ 3.031889, 44.598467, 0.0 ], [ 3.037127, 44.595537, 0.0 ], [ 3.041088, 44.594207, 0.0 ], [ 3.055358, 44.587082, 0.0 ], [ 3.05963, 44.581631, 0.0 ], [ 3.061849, 44.578999, 0.0 ], [ 3.076199, 44.572554, 0.0 ], [ 3.07661, 44.569502, 0.0 ], [ 3.079011, 44.566482, 0.0 ], [ 3.083471, 44.560327, 0.0 ], [ 3.074914, 44.533287, 0.0 ], [ 3.076229, 44.519464, 0.0 ], [ 3.070022, 44.50615, 0.0 ], [ 3.073856, 44.496638, 0.0 ], [ 3.099557, 44.480435, 0.0 ], [ 3.103503, 44.479544, 0.0 ], [ 3.117329, 44.47379, 0.0 ], [ 3.124866, 44.461306, 0.0 ], [ 3.135483, 44.45552, 0.0 ], [ 3.136191, 44.448797, 0.0 ], [ 3.136369, 44.445396, 0.0 ], [ 3.135078, 44.442024, 0.0 ], [ 3.14214, 44.437232, 0.0 ], [ 3.141037, 44.4268, 0.0 ], [ 3.129939, 44.420343, 0.0 ], [ 3.126714, 44.413962, 0.0 ], [ 3.130376, 44.412039, 0.0 ], [ 3.137247, 44.408266, 0.0 ], [ 3.137049, 44.391629, 0.0 ], [ 3.119743, 44.386341, 0.0 ], [ 3.123394, 44.380218, 0.0 ], [ 3.122489, 44.370018, 0.0 ], [ 3.120487, 44.366821, 0.0 ], [ 3.123587, 44.360774, 0.0 ], [ 3.131973, 44.357179, 0.0 ], [ 3.129711, 44.354155, 0.0 ], [ 3.1279, 44.347478, 0.0 ], [ 3.134184, 44.334528, 0.0 ], [ 3.150932, 44.329936, 0.0 ], [ 3.146076, 44.31714, 0.0 ], [ 3.154266, 44.309229, 0.0 ], [ 3.125566, 44.285374, 0.0 ], [ 3.121884, 44.264539, 0.0 ], [ 3.124571, 44.261597, 0.0 ], [ 3.133905, 44.262392, 0.0 ], [ 3.138294, 44.26397, 0.0 ], [ 3.140152, 44.267042, 0.0 ], [ 3.146175, 44.276034, 0.0 ], [ 3.154268, 44.273042, 0.0 ], [ 3.160523, 44.246289, 0.0 ], [ 3.174419, 44.245257, 0.0 ], [ 3.187822, 44.248912, 0.0 ], [ 3.195678, 44.240658, 0.0 ], [ 3.23054, 44.230343, 0.0 ], [ 3.224204, 44.221142, 0.0 ], [ 3.223602, 44.210779, 0.0 ], [ 3.219205, 44.204511, 0.0 ], [ 3.215792, 44.202102, 0.0 ], [ 3.21207, 44.195782, 0.0 ], [ 3.204092, 44.193459, 0.0 ], [ 3.202622, 44.190721, 1.0 ], [ 3.204757, 44.189867, 0.0 ], [ 3.216172, 44.190236, 0.0 ], [ 3.223189, 44.191036, 0.0 ], [ 3.230587, 44.189868, 0.0 ], [ 3.239259, 44.19067, 0.0 ], [ 3.243227, 44.192581, 0.0 ], [ 3.264365, 44.200315, 0.0 ], [ 3.287876, 44.199519, 0.0 ], [ 3.291617, 44.205683, 0.0 ], [ 3.301042, 44.206463, 0.0 ], [ 3.318326, 44.200393, 0.0 ], [ 3.332081, 44.203514, 0.0 ], [ 3.355609, 44.200852, 0.0 ], [ 3.360414, 44.201176, 0.0 ], [ 3.358394, 44.194478, 0.0 ], [ 3.372066, 44.180725, 0.0 ], [ 3.373645, 44.170765, 0.0 ], [ 3.392509, 44.168696, 0.0 ], [ 3.396932, 44.1627, 0.0 ], [ 3.428465, 44.148668, 0.0 ], [ 3.435175, 44.132765, 0.0 ], [ 3.438624, 44.130374, 0.0 ], [ 3.443052, 44.128855, 0.0 ], [ 3.481023, 44.124255, 0.0 ], [ 3.505157, 44.126203, 0.0 ], [ 3.536255, 44.120335, 0.0 ], [ 3.546212, 44.113724, 0.0 ], [ 3.565463, 44.123176, 0.0 ], [ 3.569989, 44.122324, 0.0 ], [ 3.574615, 44.121516, 0.0 ], [ 3.606158, 44.115903, 0.0 ], [ 3.632829, 44.121227, 0.0 ], [ 3.635851, 44.138133, 0.0 ], [ 3.647169, 44.144293, 0.0 ], [ 3.630152, 44.155412, 0.0 ], [ 3.637695, 44.175439, 0.0 ], [ 3.64496, 44.180002, 0.0 ], [ 3.649641, 44.180854, 0.0 ], [ 3.659833, 44.174256, 0.0 ], [ 3.667863, 44.17772, 0.0 ], [ 3.671085, 44.184083, 0.0 ], [ 3.68032, 44.182963, 0.0 ], [ 3.685024, 44.18269, 0.0 ], [ 3.684396, 44.179414, 0.0 ], [ 3.692425, 44.171383, 0.0 ], [ 3.707652, 44.164467, 0.0 ], [ 3.721088, 44.164738, 0.0 ], [ 3.725623, 44.164249, 0.0 ], [ 3.735046, 44.157312, 0.0 ], [ 3.750845, 44.152144, 0.0 ], [ 3.75526, 44.151413, 0.0 ], [ 3.759613, 44.151194, 0.0 ], [ 3.762202, 44.145396, 0.0 ], [ 3.768901, 44.142629, 0.0 ], [ 3.773034, 44.141603, 0.0 ], [ 3.777232, 44.140199, 0.0 ], [ 3.796994, 44.127391, 0.0 ], [ 3.810833, 44.128563, 0.0 ], [ 3.816672, 44.131758, 0.0 ], [ 3.82025, 44.132447, 0.0 ], [ 3.82847, 44.136443, 0.0 ], [ 3.832115, 44.137339, 0.0 ], [ 3.872725, 44.128663, 0.0 ], [ 3.89431, 44.147171, 0.0 ], [ 3.898471, 44.148631, 0.0 ], [ 3.907393, 44.147864, 0.0 ], [ 3.910606, 44.150255, 0.0 ], [ 3.911593, 44.160124, 0.0 ], [ 3.923495, 44.159978, 0.0 ], [ 3.927267, 44.1613, 0.0 ], [ 3.926368, 44.167984, 0.0 ], [ 3.927484, 44.167522, 0.0 ], [ 3.928556, 44.170046, 0.0 ], [ 3.922033, 44.180665, 0.0 ], [ 3.923364, 44.182358, 0.0 ], [ 3.932076, 44.181619, 0.0 ], [ 3.974025, 44.162874, 0.0 ], [ 3.976901, 44.171016, 0.0 ], [ 3.97115, 44.174217, 0.0 ], [ 3.96984, 44.172471, 0.0 ], [ 3.965942, 44.171612, 0.0 ], [ 3.957052, 44.184266, 0.0 ], [ 3.95921, 44.190877, 0.0 ], [ 3.951817, 44.194205, 0.0 ], [ 3.940079, 44.192667, 0.0 ], [ 3.936528, 44.195305, 0.0 ], [ 3.939167, 44.198005, 0.0 ], [ 3.946255, 44.212662, 0.0 ], [ 3.947251, 44.215984, 0.0 ], [ 3.950916, 44.216874, 0.0 ], [ 3.946425, 44.241016, 0.0 ], [ 3.95474, 44.24959, 0.0 ], [ 3.966922, 44.249868, 0.0 ], [ 3.971117, 44.250399, 0.0 ], [ 3.974753, 44.259734, 0.0 ], [ 3.96923, 44.264781, 0.0 ], [ 3.958544, 44.270984, 0.0 ], [ 3.949676, 44.269442, 0.0 ], [ 3.946762, 44.266895, 0.0 ], [ 3.9343, 44.275452, 0.0 ], [ 3.937668, 44.281221, 0.0 ], [ 3.940022, 44.283875, 0.0 ], [ 3.939232, 44.28735, 0.0 ], [ 3.932937, 44.296777, 0.0 ], [ 3.924936, 44.300824, 0.0 ], [ 3.922856, 44.305225, 0.0 ], [ 3.943732, 44.317917, 0.0 ], [ 3.948813, 44.32385, 0.0 ], [ 3.951029, 44.326876, 0.0 ], [ 3.950941, 44.333425, 0.0 ], [ 3.937619, 44.336067, 0.0 ], [ 3.925001, 44.346297, 0.0 ], [ 3.925006, 44.352719, 0.0 ], [ 3.911308, 44.370329, 0.0 ], [ 3.889108, 44.385613, 0.0 ], [ 3.885812, 44.387978, 0.0 ], [ 3.888684, 44.392966, 0.0 ], [ 3.894777, 44.390128, 0.0 ], [ 3.900416, 44.39262, 0.0 ], [ 3.901537, 44.395527, 0.0 ], [ 3.908508, 44.403045, 0.0 ], [ 3.916444, 44.405054, 0.0 ], [ 3.948912, 44.402324, 0.0 ], [ 3.949198, 44.409255, 0.0 ], [ 3.961262, 44.414662, 0.0 ], [ 3.971717, 44.42638, 0.0 ], [ 3.973044, 44.42672, 0.0 ], [ 3.971898, 44.43002, 0.0 ], [ 3.97596, 44.442813, 0.0 ], [ 3.998157, 44.459803, 0.0 ], [ 3.98712, 44.474874, 0.0 ], [ 3.986785, 44.50243, 0.0 ], [ 3.980289, 44.515427, 0.0 ], [ 3.975789, 44.516744, 0.0 ], [ 3.978991, 44.521761, 0.0 ], [ 3.967653, 44.534864, 0.0 ], [ 3.965686, 44.537682, 0.0 ], [ 3.96495, 44.541012, 0.0 ], [ 3.960906, 44.553818, 0.0 ], [ 3.958479, 44.556894, 0.0 ], [ 3.948772, 44.572886, 0.0 ], [ 3.944428, 44.573661, 0.0 ], [ 3.923563, 44.571886, 0.0 ], [ 3.921622, 44.574972, 0.0 ], [ 3.916814, 44.580709, 0.0 ], [ 3.918462, 44.587368, 0.0 ], [ 3.906543, 44.592379, 0.0 ], [ 3.905321, 44.595463, 0.0 ], [ 3.908079, 44.607702, 0.0 ], [ 3.906659, 44.61097, 0.0 ], [ 3.894136, 44.615286, 0.0 ], [ 3.894391, 44.639021, 0.0 ], [ 3.895767, 44.642295, 0.0 ], [ 3.894946, 44.64719, 0.0 ], [ 3.894771, 44.649962, 0.0 ], [ 3.885389, 44.657482, 0.0 ], [ 3.871644, 44.679334, 0.0 ], [ 3.88175, 44.690581, 0.0 ], [ 3.884566, 44.693439, 0.0 ], [ 3.883535, 44.696718, 0.0 ], [ 3.869642, 44.696966, 0.0 ], [ 3.869244, 44.700399, 0.0 ], [ 3.87001, 44.707207, 0.0 ], [ 3.863103, 44.712027, 0.0 ], [ 3.863762, 44.722335, 0.0 ], [ 3.877096, 44.735994, 0.0 ], [ 3.862531, 44.743869, 0.0 ], [ 3.85831, 44.745529, 0.0 ], [ 3.839419, 44.747128, 0.0 ], [ 3.829912, 44.754643, 0.0 ], [ 3.832974, 44.757255, 0.0 ], [ 3.842804, 44.768798, 0.0 ], [ 3.841858, 44.77213, 0.0 ], [ 3.833253, 44.775279, 0.0 ], [ 3.819377, 44.77256, 0.0 ], [ 3.817347, 44.769817, 0.0 ], [ 3.810639, 44.765886, 0.0 ], [ 3.806996, 44.767581, 0.0 ], [ 3.803693, 44.770197, 0.0 ], [ 3.79735, 44.786492, 0.0 ], [ 3.771961, 44.802316, 0.0 ], [ 3.764141, 44.800384, 0.0 ], [ 3.759958, 44.80633, 0.0 ], [ 3.761692, 44.812875, 0.0 ], [ 3.759839, 44.816056, 0.0 ], [ 3.755782, 44.817539, 0.0 ], [ 3.74388, 44.837797, 0.0 ], [ 3.735378, 44.840117, 0.0 ], [ 3.735926, 44.836737, 0.0 ], [ 3.719472, 44.831925, 0.0 ], [ 3.701785, 44.836085, 0.0 ], [ 3.694337, 44.831805, 0.0 ], [ 3.666365, 44.82878, 0.0 ], [ 3.663659, 44.831422, 0.0 ], [ 3.657424, 44.836129, 0.0 ], [ 3.661597, 44.837752, 0.0 ], [ 3.669733, 44.84128, 0.0 ], [ 3.673645, 44.854123, 0.0 ], [ 3.671248, 44.857022, 0.0 ], [ 3.664386, 44.860973, 0.0 ], [ 3.660132, 44.870506, 0.0 ], [ 3.644298, 44.877135, 0.0 ], [ 3.640663, 44.878572, 0.0 ], [ 3.632536, 44.877309, 0.0 ] ] ] } }
]
}
