{
"type": "FeatureCollection",
"name": "Limites_Circos",
"features": [
{ "type": "Feature", "properties": { "Name": "\n                Circonscription Mende ASH\n            ", "i_map_feature_id": "\n                        7241624c-c9da-43ac-b00d-30df2e3bc415\n                    " }, "geometry": { "type": "LineString", "coordinates": [ [ 3.2285209, 44.2304142, 0.0 ], [ 3.3024021, 44.3344734, 0.0 ], [ 3.3885984, 44.4329945, 0.0 ], [ 3.45533, 44.4382945, 0.0 ], [ 3.6263047, 44.4397653, 0.0 ], [ 3.7875114, 44.4580485, 0.0 ], [ 3.8134149, 44.4876233, 0.0 ], [ 3.8059316, 44.53524, 0.0 ], [ 3.8139905, 44.5512404, 0.0 ], [ 3.8232006, 44.5643656, 0.0 ], [ 3.8289569, 44.5729774, 0.0 ], [ 3.8623436, 44.5930666, 0.0 ], [ 3.894136, 44.615286, 0.0 ] ] } },
{ "type": "Feature", "properties": { "Name": "\n                Circonscription Marvejols\n            ", "i_map_feature_id": "\n                        8eb4367c-a441-40c8-97a5-1e23e4789953\n                    " }, "geometry": { "type": "LineString", "coordinates": [ [ 3.456171, 44.831236, 0.0 ], [ 3.4374772, 44.8155557, 0.0 ], [ 3.4330773, 44.7917716, 0.0 ], [ 3.4252101, 44.7447187, 0.0 ], [ 3.4228544, 44.7063926, 0.0 ], [ 3.4281854, 44.661162, 0.0 ], [ 3.4545794, 44.6240362, 0.0 ], [ 3.4573815, 44.5892321, 0.0 ], [ 3.4491502, 44.5680712, 0.0 ], [ 3.4097517, 44.538312, 0.0 ], [ 3.3578816, 44.5122798, 0.0 ], [ 3.2634359, 44.4924173, 0.0 ], [ 3.3365666, 44.373545, 0.0 ] ] } }
]
}
